NORAD_CAT_ID,OBJECT_NAME,OBJECT_TYPE,EPOCH,MEAN_MOTION,ECCENTRICITY,INCLINATION,RA_OF_ASC_NODE,ARG_OF_PERICENTER,MEAN_ANOMALY,BSTAR,MEAN_MOTION_DOT,MEAN_MOTION_DDOT,TLE_LINE0,TLE_LINE1,TLE_LINE2,SEMIMAJOR_AXIS,PERIOD,APOGEE,PERIGEE,DECAYED
55662.0,STARLINK-5479,PAYLOAD,2023-05-25 15:17:59,15.69934696,0.0003536,69.9988,237.5832,271.5344,88.5446,3.3185e-06,1.86e-06,0.0,0 STARLINK-5479,1 55662U 23021AL  23145.63749268  .00000186  00000-0  33185-5 0  9992,2 55662  69.9988 237.5832 0003536 271.5344  88.5446 15.69934696 15748,6737.221,91.724,361.468,356.704,0.0
55662.0,STARLINK-5479,PAYLOAD,2023-05-26 09:39:02,15.69915346,0.0003464,69.9994,235.4335,275.8373,84.2428,1.7158e-06,-7e-08,0.0,0 STARLINK-5479,1 55662U 23021AL  23146.40210737 -.00000007  00000-0  17158-5 0  9997,2 55662  69.9994 235.4335 0003464 275.8373  84.2428 15.69915346 16171,6737.276,91.725,361.475,356.807,0.0
55662.0,STARLINK-5479,PAYLOAD,2023-05-26 15:46:02,15.69922488,0.0003367,69.999,234.7168,274.3855,85.6956,3.28e-06,1.82e-06,0.0,0 STARLINK-5479,1 55662U 23021AL  23146.65696993  .00000182  00000-0  32800-5 0  9990,2 55662  69.9990 234.7168 0003367 274.3855  85.6956 15.69922488 15900,6737.256,91.724,361.389,356.852,0.0
55662.0,STARLINK-5479,PAYLOAD,2023-05-27 14:42:18,15.69928732,0.000336,69.9989,232.0302,269.9384,90.1427,3.1375e-06,1.65e-06,0.0,0 STARLINK-5479,1 55662U 23021AL  23147.61271647  .00000165  00000-0  31375-5 0  9999,2 55662  69.9989 232.0302 0003360 269.9384  90.1427 15.69928732 16362,6737.238,91.724,361.367,356.839,0.0
55662.0,STARLINK-5479,PAYLOAD,2023-05-28 05:59:50,15.69920552,0.0003202,69.9992,230.2386,266.8605,93.2224,1.742e-05,1.882e-05,0.0,0 STARLINK-5479,1 55662U 23021AL  23148.24988566  .00001882  00000-0  17420-4 0  9995,2 55662  69.9992 230.2386 0003202 266.8605  93.2224 15.69920552 16467,6737.261,91.724,361.284,356.969,0.0
55662.0,STARLINK-5479,PAYLOAD,2023-05-28 09:03:20,15.69921414,0.0003185,69.9993,229.8803,266.812,93.2711,1.7963e-05,1.947e-05,0.0,0 STARLINK-5479,1 55662U 23021AL  23148.37731871  .00001947  00000-0  17963-4 0  9998,2 55662  69.9993 229.8803 0003185 266.8120  93.2711 15.69921414 16175,6737.259,91.724,361.27,356.978,0.0
55662.0,STARLINK-5479,PAYLOAD,2023-05-28 15:10:20,15.69927258,0.0003433,69.9995,229.1649,271.1173,88.9629,2.2236e-05,2.462e-05,0.0,0 STARLINK-5479,1 55662U 23021AL  23148.63218103  .00002462  00000-0  22236-4 0  9997,2 55662  69.9995 229.1649 0003433 271.1173  88.9629 15.69927258 16521,6737.242,91.724,361.42,356.794,0.0
55662.0,STARLINK-5479,PAYLOAD,2023-05-29 07:59:37,15.69916116,0.000329,69.9972,227.1911,268.2091,91.8728,-2.9216e-06,-5.64e-06,0.0,0 STARLINK-5479,1 55662U 23021AL  23149.33307697 -.00000564  00000-0 -29216-5 0  9991,2 55662  69.9972 227.1911 0003290 268.2091  91.8728 15.69916116 16325,6737.274,91.725,361.356,356.922,0.0
55662.0,STARLINK-5479,PAYLOAD,2023-05-29 14:06:38,15.69917948,0.0003299,69.9987,226.4782,271.3368,88.745,-2.5009e-06,-5.13e-06,0.0,0 STARLINK-5479,1 55662U 23021AL  23149.58794435 -.00000513  00000-0 -25009-5 0  9998,2 55662  69.9987 226.4782 0003299 271.3368  88.7450 15.69917948 16679,6737.269,91.725,361.356,356.911,0.0
55662.0,STARLINK-5479,PAYLOAD,2023-05-29 15:38:23,15.6991774,0.0003312,69.9987,226.2983,262.7086,97.3733,9.4321e-07,-9.9e-07,0.0,0 STARLINK-5479,1 55662U 23021AL  23149.65165965 -.00000099  00000-0  94321-6 0  9998,2 55662  69.9987 226.2983 0003312 262.7086  97.3733 15.69917740 16688,6737.269,91.725,361.366,356.903,0.0
55662.0,STARLINK-5479,PAYLOAD,2023-05-30 08:27:39,15.69918863,0.000405,69.9981,224.326,280.7424,79.3316,-5.5414e-06,-8.79e-06,0.0,0 STARLINK-5479,1 55662U 23021AL  23150.35254432 -.00000879  00000-0 -55414-5 0  9991,2 55662  69.9981 224.3260 0004050 280.7424  79.3316 15.69918863 16487,6737.266,91.724,361.86,356.403,0.0
55662.0,STARLINK-5479,PAYLOAD,2023-05-30 14:34:39,15.69926952,0.0002812,69.9971,223.6065,259.9859,100.1019,2.9478e-07,-1.77e-06,0.0,0 STARLINK-5479,1 55662U 23021AL  23150.60740406 -.00000177  00000-0  29478-6 0  9992,2 55662  69.9971 223.6065 0002812 259.9859 100.1019 15.69926952 16521,6737.243,91.724,361.003,357.213,0.0
55662.0,STARLINK-5479,PAYLOAD,2023-05-30 22:13:25,15.69920408,0.0003395,69.9974,222.7133,278.8558,81.2253,1.0052e-05,9.96e-06,0.0,0 STARLINK-5479,1 55662U 23021AL  23150.92599080  .00000996  00000-0  10052-4 0  9991,2 55662  69.9974 222.7133 0003395 278.8558  81.2253 15.69920408 16577,6737.262,91.724,361.414,356.839,0.0
55662.0,STARLINK-5479,PAYLOAD,2023-05-31 13:30:56,15.6992066,0.0003119,69.9975,220.9217,262.1493,97.9349,1.8712e-05,2.037e-05,0.0,0 STARLINK-5479,1 55662U 23021AL  23151.56315703  .00002037  00000-0  18712-4 0  9999,2 55662  69.9975 220.9217 0003119 262.1493  97.9349 15.69920660 16984,6737.261,91.724,361.227,357.025,0.0
55662.0,STARLINK-5479,PAYLOAD,2023-06-01 07:51:58,15.69921656,0.0003201,69.9971,218.7712,266.8851,93.1978,8.8334e-06,8.49e-06,0.0,0 STARLINK-5479,1 55662U 23021AL  23152.32775842  .00000849  00000-0  88334-5 0  9995,2 55662  69.9971 218.7712 0003201 266.8851  93.1978 15.69921656 17103,6737.258,91.724,361.28,356.967,0.0
55662.0,STARLINK-5479,PAYLOAD,2023-06-01 21:37:44,15.69922091,0.0003203,69.9971,217.1601,267.7002,92.3827,7.633e-06,7.05e-06,0.0,0 STARLINK-5479,1 55662U 23021AL  23152.90120968  .00000705  00000-0  76330-5 0  9996,2 55662  69.9971 217.1601 0003203 267.7002  92.3827 15.69922091 16885,6737.257,91.724,361.28,356.964,0.0
55662.0,STARLINK-5479,PAYLOAD,2023-06-02 12:55:15,15.69929037,0.0003017,69.9979,215.3698,266.5182,93.5668,1.2197e-05,1.254e-05,0.0,0 STARLINK-5479,1 55662U 23021AL  23153.53837192  .00001254  00000-0  12197-4 0  9990,2 55662  69.9979 215.3698 0003017 266.5182  93.5668 15.69929037 17297,6737.237,91.724,361.135,357.069,0.0
55662.0,STARLINK-5479,PAYLOAD,2023-06-02 14:27:02,15.6990271,0.000346,69.9979,215.1909,267.0891,92.9909,-1.8534e-05,-2.439e-05,0.0,0 STARLINK-5479,1 55662U 23021AL  23153.60210911 -.00002439  00000-0 -18534-4 0  9991,2 55662  69.9979 215.1909 0003460 267.0891  92.9909 15.69902710 16991,6737.312,91.725,361.508,356.846,0.0
55662.0,STARLINK-5479,PAYLOAD,2023-06-03 07:16:17,15.69918577,0.0003565,69.9971,213.221,274.1755,85.9033,1.2249e-06,-6.6e-07,0.0,0 STARLINK-5479,1 55662U 23021AL  23154.30298348 -.00000066  00000-0  12249-5 0  9990,2 55662  69.9971 213.2210 0003565 274.1755  85.9033 15.69918577 17103,6737.267,91.725,361.534,356.73,0.0
55662.0,STARLINK-5479,PAYLOAD,2023-06-03 13:23:16,15.69937105,0.0003456,69.9978,212.5056,278.0174,82.063,2.2885e-05,2.541e-05,0.0,0 STARLINK-5479,1 55662U 23021AL  23154.55783360  .00002541  00000-0  22885-4 0  9995,2 55662  69.9978 212.5056 0003456 278.0174  82.0630 15.69937105 17454,6737.214,91.723,361.407,356.751,0.0
55662.0,STARLINK-5479,PAYLOAD,2023-06-03 21:02:03,15.69920777,0.0003099,69.9975,211.6091,270.3164,89.7676,6.6988e-06,5.93e-06,0.0,0 STARLINK-5479,1 55662U 23021AL  23154.87642996  .00000593  00000-0  66988-5 0  9997,2 55662  69.9975 211.6091 0003099 270.3164  89.7676 15.69920777 17504,6737.261,91.724,361.214,357.038,0.0
55662.0,STARLINK-5479,PAYLOAD,2023-06-04 03:09:03,15.69923838,0.0003052,69.9978,210.8929,271.1242,88.9604,4.5003e-06,3.29e-06,0.0,0 STARLINK-5479,1 55662U 23021AL  23155.13129625  .00000329  00000-0  45003-5 0  9998,2 55662  69.9978 210.8929 0003052 271.1242  88.9604 15.69923838 17236,6737.252,91.724,361.173,357.061,0.0
55662.0,STARLINK-5479,PAYLOAD,2023-06-04 13:51:19,15.69927809,0.0003311,69.9976,209.6385,271.6211,88.4606,2.1444e-06,4.5e-07,0.0,0 STARLINK-5479,1 55662U 23021AL  23155.57731047  .00000045  00000-0  21444-5 0  9991,2 55662  69.9976 209.6385 0003311 271.6211  88.4606 15.69927809 17616,6737.241,91.724,361.336,356.875,0.0
55662.0,STARLINK-5479,PAYLOAD,2023-06-05 05:08:50,15.69935521,0.0003204,69.9977,207.8472,272.4642,87.6187,-9.4224e-06,-1.346e-05,0.0,0 STARLINK-5479,1 55662U 23021AL  23156.21447658 -.00001346  00000-0 -94224-5 0  9998,2 55662  69.9977 207.8472 0003204 272.4642  87.6187 15.69935521 17404,6737.218,91.724,361.242,356.925,0.0
55662.0,STARLINK-5479,PAYLOAD,2023-06-05 12:47:36,15.69928507,0.0003325,69.9974,206.9517,272.272,87.8094,-1.4394e-05,-1.943e-05,0.0,0 STARLINK-5479,1 55662U 23021AL  23156.53306395 -.00001943  00000-0 -14394-4 0  9997,2 55662  69.9974 206.9517 0003325 272.2720  87.8094 15.69928507 17764,6737.239,91.724,361.344,356.863,0.0
55662.0,STARLINK-5479,PAYLOAD,2023-06-06 04:03:28,15.71261079,0.0008212,69.9974,205.1559,234.9841,125.0585,0.0014434,0.0018767,0.0,0 STARLINK-5479,1 55662U 23021AL  23157.16908441  .00187670  00000-0  14434-2 0  9990,2 55662  69.9974 205.1559 0008212 234.9841 125.0585 15.71261079 17554,6733.429,91.646,360.823,349.764,0.0
55662.0,STARLINK-5479,PAYLOAD,2023-06-06 20:00:01,15.699284,0.0003609,69.9991,203.2955,269.4025,237.2884,-0.00022218,-0.00026849,0.0,0 STARLINK-5479,1 55662U 23021AL  23157.83334491 -.00026849  00000-0 -22218-3 0  9994,2 55662  69.9991 203.2955 0003609 269.4025 237.2884 15.69928400  1303,6737.239,91.724,361.535,356.672,0.0
55662.0,STARLINK-5479,PAYLOAD,2023-06-06 23:57:54,15.69925007,0.0003332,69.9979,202.8308,266.8796,93.2018,5.6815e-06,4.7e-06,0.0,0 STARLINK-5479,1 55662U 23021AL  23157.99854483  .00000470  00000-0  56815-5 0  9991,2 55662  69.9979 202.8308 0003332 266.8796  93.2018 15.69925007 17682,6737.249,91.724,361.358,356.869,0.0
55662.0,STARLINK-5479,PAYLOAD,2023-06-07 06:04:55,15.69915672,0.0003304,69.9974,202.1136,261.3037,98.7785,9.4838e-06,9.27e-06,0.0,0 STARLINK-5479,1 55662U 23021AL  23158.25341560  .00000927  00000-0  94838-5 0  9992,2 55662  69.9974 202.1136 0003304 261.3037  98.7785 15.69915672 17729,6737.275,91.725,361.366,356.914,0.0
55662.0,STARLINK-5479,PAYLOAD,2023-06-07 19:50:41,15.69918092,0.0003506,69.9972,200.5024,267.1053,92.9741,5.1296e-06,4.04e-06,0.0,0 STARLINK-5479,1 55662U 23021AL  23158.82686748  .00000404  00000-0  51296-5 0  9996,2 55662  69.9972 200.5024 0003506 267.1053  92.9741 15.69918092 18123,6737.268,91.725,361.495,356.771,0.0
